NORAD_CAT_ID,OBJECT_NAME,OBJECT_TYPE,EPOCH,MEAN_MOTION,ECCENTRICITY,INCLINATION,RA_OF_ASC_NODE,ARG_OF_PERICENTER,MEAN_ANOMALY,BSTAR,MEAN_MOTION_DOT,MEAN_MOTION_DDOT,TLE_LINE0,TLE_LINE1,TLE_LINE2,SEMIMAJOR_AXIS,PERIOD,APOGEE,PERIGEE,DECAYED
53395.0,STARLINK-4534,PAYLOAD,2022-11-27 10:02:33,15.08840409,0.0002295,53.2194,103.38,46.1324,313.9857,4.9852e-05,5.05e-06,0.0,0 STARLINK-4534,1 53395U 22097H   22331.41843987  .00000505  00000-0  49852-4 0  9992,2 53395  53.2194 103.3800 0002295  46.1324 313.9857 15.08840409 17614,6917.879,95.438,541.332,538.156,0.0
53395.0,STARLINK-4534,PAYLOAD,2022-11-27 17:59:28,15.08842744,0.0002374,53.2192,101.8928,45.4415,314.6771,-2.0223e-05,-6.1e-06,0.0,0 STARLINK-4534,1 53395U 22097H   22331.74963981 -.00000610  00000-0 -20223-4 0  9995,2 53395  53.2192 101.8928 0002374  45.4415 314.6771 15.08842744 17669,6917.871999999999,95.437,541.379,538.095,0.0
53395.0,STARLINK-4534,PAYLOAD,2022-11-28 01:56:24,15.08845444,0.0002471,53.2198,100.4064,47.4998,312.6203,2.4858e-05,1.07e-06,0.0,0 STARLINK-4534,1 53395U 22097H   22332.08083627  .00000107  00000-0  24858-4 0  9990,2 53395  53.2198 100.4064 0002471  47.4998 312.6203 15.08845444 17227,6917.864000000001,95.437,541.438,538.019,0.0
53395.0,STARLINK-4534,PAYLOAD,2022-11-28 14:39:29,15.08839959,0.0002377,53.2193,98.0274,47.191,312.9281,3.7543e-05,3.09e-06,0.0,0 STARLINK-4534,1 53395U 22097H   22332.61075792  .00000309  00000-0  37543-4 0  9992,2 53395  53.2193  98.0274 0002377  47.1910 312.9281 15.08839959 17798,6917.880999999999,95.438,541.39,538.101,0.0
53395.0,STARLINK-4534,PAYLOAD,2022-11-28 17:50:15,15.08839043,0.0002163,53.2186,97.4327,44.6355,315.4811,-1.245e-05,-4.86e-06,0.0,0 STARLINK-4534,1 53395U 22097H   22332.74323952 -.00000486  00000-0 -12450-4 0  9998,2 53395  53.2186  97.4327 0002163  44.6355 315.4811 15.08839043 17320,6917.8830000000025,95.438,541.245,538.252,0.0
53395.0,STARLINK-4534,PAYLOAD,2022-11-29 08:08:43,15.08846116,0.0002154,53.2189,94.7565,44.0496,316.0667,8.4516e-05,1.057e-05,0.0,0 STARLINK-4534,1 53395U 22097H   22333.33939091  .00001057  00000-0  84516-4 0  9996,2 53395  53.2189  94.7565 0002154  44.0496 316.0667 15.08846116 17412,6917.861999999999,95.437,541.217,538.237,0.0
53395.0,STARLINK-4534,PAYLOAD,2022-11-29 17:41:02,15.08844793,0.0002175,53.2189,92.9724,44.5968,315.5199,7.2415e-05,8.65e-06,0.0,0 STARLINK-4534,1 53395U 22097H   22333.73683098  .00000865  00000-0  72415-4 0  9994,2 53395  53.2189  92.9724 0002175  44.5968 315.5199 15.08844793 17964,6917.866,95.437,541.235,538.226,0.0
53395.0,STARLINK-4534,PAYLOAD,2022-11-30 07:59:31,15.08836272,0.0002494,53.2186,90.2989,43.7058,316.4131,-6.0213e-05,-1.247e-05,0.0,0 STARLINK-4534,1 53395U 22097H   22334.33300166 -.00001247  00000-0 -60213-4 0  9993,2 53395  53.2186  90.2989 0002494  43.7058 316.4131 15.08836272 17565,6917.892,95.438,541.482,538.031,0.0
53395.0,STARLINK-4534,PAYLOAD,2022-11-30 14:21:03,15.08837575,0.0002401,53.2186,89.1089,44.1986,315.9198,-2.9556e-05,-7.59e-06,0.0,0 STARLINK-4534,1 53395U 22097H   22334.59795988 -.00000759  00000-0 -29556-4 0  9993,2 53395  53.2186  89.1089 0002401  44.1986 315.9198 15.08837575 18099,6917.888000000001,95.438,541.414,538.092,0.0
53395.0,STARLINK-4534,PAYLOAD,2022-12-01 12:36:28,15.08804773,0.0002475,53.2189,84.9442,48.2396,311.8807,0.00046825,7.165e-05,0.0,0 STARLINK-4534,1 53395U 22097H   22335.52532476  .00007165  00000-0  46825-3 0  9991,2 53395  53.2189  84.9442 0002475  48.2396 311.8807 15.08804773 18231,6917.988,95.44,541.565,538.141,0.0
53395.0,STARLINK-4534,PAYLOAD,2022-12-02 14:02:37,15.08836802,0.0002195,53.2197,80.1866,37.4333,322.6812,4.35e-05,4.04e-06,0.0,0 STARLINK-4534,1 53395U 22097H   22336.58515976  .00000404  00000-0  43500-4 0  9991,2 53395  53.2197  80.1866 0002195  37.4333 322.6812 15.08836802 17905,6917.89,95.438,541.274,538.237,0.0
53395.0,STARLINK-4534,PAYLOAD,2022-12-02 23:34:57,15.0882807,0.0002217,53.2194,78.4034,35.0323,325.0815,-4.138600000000001e-05,-9.47e-06,0.0,0 STARLINK-4534,1 53395U 22097H   22336.98260968 -.00000947  00000-0 -41386-4 0  9997,2 53395  53.2194  78.4034 0002217  35.0323 325.0815 15.08828070 17961,6917.917,95.438,541.316,538.248,0.0
53395.0,STARLINK-4534,PAYLOAD,2022-12-03 13:53:24,15.08841761,0.0002214,53.2192,75.7271,33.4222,326.691,4.8856e-05,4.89e-06,0.0,0 STARLINK-4534,1 53395U 22097H   22337.57876002  .00000489  00000-0  48856-4 0  9993,2 53395  53.2192  75.7271 0002214  33.4222 326.6910 15.08841761 18055,6917.875,95.437,541.2719999999998,538.2080000000002,0.0
53395.0,STARLINK-4534,PAYLOAD,2022-12-03 17:04:11,15.08842618,0.0002237,53.2195,75.1326,34.1548,325.9588,5.429100000000001e-05,5.76e-06,0.0,0 STARLINK-4534,1 53395U 22097H   22337.71123929  .00000576  00000-0  54291-4 0  9999,2 53395  53.2195  75.1326 0002237  34.1548 325.9588 15.08842618 18568,6917.871999999999,95.437,541.285,538.19,0.0
53395.0,STARLINK-4534,PAYLOAD,2022-12-03 23:25:44,15.08832382,0.0002394,53.2191,73.9429,36.3218,323.7936,-4.2998e-05,-9.73e-06,0.0,0 STARLINK-4534,1 53395U 22097H   22337.97621008 -.00000973  00000-0 -42998-4 0  9992,2 53395  53.2191  73.9429 0002394  36.3218 323.7936 15.08832382 18117,6917.904,95.438,541.425,538.113,0.0
53395.0,STARLINK-4534,PAYLOAD,2022-12-04 10:33:26,15.08836798,0.0002186,53.2197,71.8614,31.0695,329.0426,6.4301e-05,7.35e-06,0.0,0 STARLINK-4534,1 53395U 22097H   22338.43988441  .00000735  00000-0  64301-4 0  9997,2 53395  53.2197  71.8614 0002186  31.0695 329.0426 15.08836798 18675,6917.89,95.438,541.2669999999998,538.243,0.0
53395.0,STARLINK-4534,PAYLOAD,2022-12-04 15:19:35,15.08843768,0.0002374,53.2197,70.9691,28.3719,331.7402,3.7629e-05,3.11e-06,0.0,0 STARLINK-4534,1 53395U 22097H   22338.63860154  .00000311  00000-0  37629-4 0  9992,2 53395  53.2197  70.9691 0002374  28.3719 331.7402 15.08843768 18214,6917.869000000002,95.437,541.376,538.092,0.0
53395.0,STARLINK-4534,PAYLOAD,2022-12-05 05:38:03,15.08844244,0.0002464,53.2201,68.2935,37.4219,322.6945,0.00011576,1.555e-05,0.0,0 STARLINK-4534,1 53395U 22097H   22339.23475958  .00001555  00000-0  11576-3 0  9996,2 53395  53.2201  68.2935 0002464  37.4219 322.6945 15.08844244 18791,6917.8669999999975,95.437,541.437,538.028,0.0
53395.0,STARLINK-4534,PAYLOAD,2022-12-06 05:28:50,15.08842916,0.0002319,53.2201,63.8336,36.0083,324.1065,0.00011959,1.616e-05,0.0,0 STARLINK-4534,1 53395U 22097H   22340.22835689  .00001616  00000-0  11959-3 0  9991,2 53395  53.2201  63.8336 0002319  36.0083 324.1065 15.08842916 18457,6917.871,95.437,541.341,538.132,0.0
53395.0,STARLINK-4534,PAYLOAD,2022-12-06 11:50:22,15.0884332,0.0002614,53.2211,62.6442,45.133,314.9874,4.3972e-05,4.11e-06,0.0,0 STARLINK-4534,1 53395U 22097H   22340.49331998  .00000411  00000-0  43972-4 0  9997,2 53395  53.2211  62.6442 0002614  45.1330 314.9874 15.08843320 18980,6917.87,95.437,541.544,537.927,0.0
53395.0,STARLINK-4534,PAYLOAD,2022-12-06 13:25:46,15.08836058,0.0002324,53.2206,62.3466,33.258,326.8558,-4.7354e-05,-1.042e-05,0.0,0 STARLINK-4534,1 53395U 22097H   22340.55956723 -.00001042  00000-0 -47354-4 0  9994,2 53395  53.2206  62.3466 0002324  33.2580 326.8558 15.08836058 18992,6917.892,95.438,541.365,538.15,0.0
53395.0,STARLINK-4534,PAYLOAD,2022-12-07 16:27:20,15.08833757,0.0002496,53.2186,57.2917,34.8018,325.3137,-4.356e-05,-9.82e-06,0.0,0 STARLINK-4534,1 53395U 22097H   22341.68565247 -.00000982  00000-0 -43560-4 0  9993,2 53395  53.2186  57.2917 0002496  34.8018 325.3137 15.08833757 18671,6917.899,95.438,541.491,538.038,0.0
53395.0,STARLINK-4534,PAYLOAD,2022-12-07 22:48:51,15.08838415,0.0001866,53.2211,56.1021,358.5282,1.5704,0.00010527,1.388e-05,0.0,0 STARLINK-4534,1 53395U 22097H   22341.95059954  .00001388  00000-0  10527-3 0  9991,2 53395  53.2211  56.1021 0001866 358.5282   1.5704 15.08838415 18717,6917.885,95.438,541.0409999999998,538.4590000000002,0.0
53395.0,STARLINK-4534,PAYLOAD,2022-12-08 11:31:58,15.08826841,0.000223,53.2211,53.7257,11.9837,348.1208,-4.670100000000001e-05,-1.031e-05,0.0,0 STARLINK-4534,1 53395U 22097H   22342.48053727 -.00001031  00000-0 -46701-4 0  9993,2 53395  53.2211  53.7257 0002230  11.9837 348.1208 15.08826841 19285,6917.920999999999,95.438,541.328,538.243,0.0
53395.0,STARLINK-4534,PAYLOAD,2022-12-08 16:18:07,15.08827393,0.0002439,53.2195,52.8339,21.8601,338.2495,9.9009e-05,1.287e-05,0.0,0 STARLINK-4534,1 53395U 22097H   22342.67925347  .00001287  00000-0  99009-4 0  9990,2 53395  53.2195  52.8339 0002439  21.8601 338.2495 15.08827393 18827,6917.919,95.438,541.471,538.097,0.0
53395.0,STARLINK-4534,PAYLOAD,2022-12-09 05:01:12,15.08831069,0.0002456,53.2183,50.45399999999999,24.8271,335.2839,7.324600000000001e-05,8.77e-06,0.0,0 STARLINK-4534,1 53395U 22097H   22343.20917668  .00000877  00000-0  73246-4 0  9996,2 53395  53.2183  50.4540 0002456  24.8271 335.2839 15.08831069 19394,6917.908,95.438,541.472,538.0740000000002,0.0
53395.0,STARLINK-4534,PAYLOAD,2022-12-10 04:52:01,15.08821986,0.0002951,53.219,45.9948,10.063,350.0421,-0.000102,-1.911e-05,0.0,0 STARLINK-4534,1 53395U 22097H   22344.20279909 -.00001911  00000-0 -10200-3 0  9998,2 53395  53.2190  45.9948 0002951  10.0630 350.0421 15.08821986 19051,6917.935,95.439,541.842,537.759,0.0
53395.0,STARLINK-4534,PAYLOAD,2022-12-10 11:13:34,15.08826456,0.0002338,53.2193,44.8037,35.9082,324.2067,-3.5394e-06,-3.45e-06,0.0,0 STARLINK-4534,1 53395U 22097H   22344.46775529 -.00000345  00000-0 -35394-5 0  9998,2 53395  53.2193  44.8037 0002338  35.9082 324.2067 15.08826456 19097,6917.922,95.438,541.404,538.169,0.0
53395.0,STARLINK-4534,PAYLOAD,2022-12-11 03:07:24,15.0883839,0.0002333,53.2181,41.8282,27.9683,332.1434,0.00012645,1.725e-05,0.0,0 STARLINK-4534,1 53395U 22097H   22345.13014547  .00001725  00000-0  12645-3 0  9992,2 53395  53.2181  41.8282 0002333  27.9683 332.1434 15.08838390 19193,6917.885,95.438,541.364,538.136,0.0
